ONEWEB-0363             
1 49289U 21090L   25197.94083502 -.00000036  00000+0 -12057-3 0  9997
2 49289  87.9279 341.2221 0001715 109.0651 251.0668 13.20770496186054
ONEWEB-0364             
1 49290U 21090M   25197.90296747  .00000067  00000+0  13290-3 0  9994
2 49290  87.9278 341.2594 0001863 101.5780 258.5562 13.20771739187183
ONEWEB-0365             
1 49291U 21090N   25197.92485008 -.00000007  00000+0 -49538-4 0  9998
2 49291  87.9214  11.5904 0001967  90.6084 269.5274 13.19724488182203
ONEWEB-0366             
1 49292U 21090P   25197.90869773  .00000072  00000+0  15995-3 0  9991
2 49292  87.9051 356.4289 0001772  95.5165 264.6167 13.14503140183515
ONEWEB-0367             
1 49293U 21090Q   25197.93925151 -.00000001  00000+0 -33532-4 0  9990
2 49293  87.9278 341.2178 0001968  91.6414 268.4945 13.20770061185576
ONEWEB-0368             
1 49294U 21090R   25197.91240540  .00000012  00000+0 -16308-5 0  9995
2 49294  87.9285 341.2570 0002493 111.9770 248.1629 13.20769519186724
ONEWEB-0369             
1 49295U 21090S   25197.92009486 -.00000011  00000+0 -59598-4 0  9996
2 49295  87.9220  11.6214 0001952  92.1505 267.9852 13.19723492182194
ONEWEB-0370             
1 49296U 21090T   25197.94872717 -.00000013  00000+0 -63454-4 0  9992
2 49296  87.9282 341.2215 0001746  86.3804 273.7529 13.20769961185613
